{
  "type": "FeatureCollection",
  "features": [
    {
      "type": "Feature",
      "properties": {
        "norad_id": 41773,
        "name": "SKYSAT-C2",
        "group": "resource",
        "lat": 58.98241814043406,
        "lon": -148.81368963996923,
        "alt_km": 448.78846846596844,
        "timestamp": "2025-12-21T03:56:50.511979+00:00",
        "meta_object_name": "SKYSAT-C2",
        "meta_object_id": "2016-058D",
        "meta_epoch": "2025-12-20T19:36:58.060224",
        "meta_mean_motion": 15.37438563,
        "meta_eccentricity": 0.0003329,
        "meta_inclination": 97.0349,
        "meta_ra_of_asc_node": 19.0021,
        "meta_arg_of_pericenter": 11.7466,
        "meta_mean_anomaly": 348.3857,
        "meta_ephemeris_type": 0,
        "meta_classification_type": "U",
        "meta_norad_cat_id": 41773,
        "meta_element_set_no": 999,
        "meta_rev_at_epoch": 51760,
        "meta_bstar": 0.00021467,
        "meta_mean_motion_dot": 7.805e-05,
        "meta_mean_motion_ddot": 0,
        "tle_line1": "1 41773U 16058D   25354.81733866  .00007805  00000+0  21467-3 0  9995",
        "tle_line2": "2 41773  97.0349  19.0021 0003329  11.7466 348.3857 15.37438563517603"
      },
      "geometry": {
        "type": "Point",
        "coordinates": [
          -148.81368963996923,
          58.98241814043406
        ]
      }
    },
    {
      "type": "Feature",
      "properties": {
        "norad_id": 41774,
        "name": "SKYSAT-C3",
        "group": "resource",
        "lat": 13.603731890711565,
        "lon": -149.79442060923637,
        "alt_km": 432.9059474669675,
        "timestamp": "2025-12-21T03:56:50.511988+00:00",
        "meta_object_name": "SKYSAT-C3",
        "meta_object_id": "2016-058E",
        "meta_epoch": "2025-12-20T08:34:23.687904",
        "meta_mean_motion": 15.44652608,
        "meta_eccentricity": 0.0001932,
        "meta_inclination": 96.9286,
        "meta_ra_of_asc_node": 27.7493,
        "meta_arg_of_pericenter": 107.595,
        "meta_mean_anomaly": 252.5511,
        "meta_ephemeris_type": 0,
        "meta_classification_type": "U",
        "meta_norad_cat_id": 41774,
        "meta_element_set_no": 999,
        "meta_rev_at_epoch": 51843,
        "meta_bstar": 0.0002841356,
        "meta_mean_motion_dot": 0.00013163,
        "meta_mean_motion_ddot": 0,
        "tle_line1": "1 41774U 16058E   25354.35721861  .00013163  00000+0  28414-3 0  9990",
        "tle_line2": "2 41774  96.9286  27.7493 0001932 107.5950 252.5511 15.44652608518432"
      },
      "geometry": {
        "type": "Point",
        "coordinates": [
          -149.79442060923637,
          13.603731890711565
        ]
      }
    },
    {
      "type": "Feature",
      "properties": {
        "norad_id": 41785,
        "name": "ALSAT 1B",
        "group": "resource",
        "lat": -9.504164921816653,
        "lon": 7.902508842511722,
        "alt_km": 658.4576156033518,
        "timestamp": "2025-12-21T03:56:50.511997+00:00",
        "meta_object_name": "ALSAT 1B",
        "meta_object_id": "2016-059C",
        "meta_epoch": "2025-12-20T19:50:03.012864",
        "meta_mean_motion": 14.72083584,
        "meta_eccentricity": 0.0010812,
        "meta_inclination": 97.7806,
        "meta_ra_of_asc_node": 6.2674,
        "meta_arg_of_pericenter": 80.6943,
        "meta_mean_anomaly": 279.5487,
        "meta_ephemeris_type": 0,
        "meta_classification_type": "U",
        "meta_norad_cat_id": 41785,
        "meta_element_set_no": 999,
        "meta_rev_at_epoch": 49433,
        "meta_bstar": 6.9277e-05,
        "meta_mean_motion_dot": 3.89e-06,
        "meta_mean_motion_ddot": 0,
        "tle_line1": "1 41785U 16059C   25354.82642376  .00000389  00000+0  69277-4 0  9997",
        "tle_line2": "2 41785  97.7806   6.2674 0010812  80.6943 279.5487 14.72083584494338"
      },
      "geometry": {
        "type": "Point",
        "coordinates": [
          7.902508842511722,
          -9.504164921816653
        ]
      }
    },
    {
      "type": "Feature",
      "properties": {
        "norad_id": 41787,
        "name": "PATHFINDER 1",
        "group": "resource",
        "lat": -73.06810154030246,
        "lon": 24.35868268013096,
        "alt_km": 690.4919993421854,
        "timestamp": "2025-12-21T03:56:50.512006+00:00",
        "meta_object_name": "PATHFINDER 1",
        "meta_object_id": "2016-059E",
        "meta_epoch": "2025-12-20T18:28:07.994208",
        "meta_mean_motion": 14.67333846,
        "meta_eccentricity": 0.0029824,
        "meta_inclination": 97.8136,
        "meta_ra_of_asc_node": 357.1705,
        "meta_arg_of_pericenter": 56.7565,
        "meta_mean_anomaly": 303.6492,
        "meta_ephemeris_type": 0,
        "meta_classification_type": "U",
        "meta_norad_cat_id": 41787,
        "meta_element_set_no": 999,
        "meta_rev_at_epoch": 49354,
        "meta_bstar": 0.0001006,
        "meta_mean_motion_dot": 5.25e-06,
        "meta_mean_motion_ddot": 0,
        "tle_line1": "1 41787U 16059E   25354.76953697  .00000525  00000+0  10060-3 0  9990",
        "tle_line2": "2 41787  97.8136 357.1705 0029824  56.7565 303.6492 14.67333846493547"
      },
      "geometry": {
        "type": "Point",
        "coordinates": [
          24.35868268013096,
          -73.06810154030246
        ]
      }
    },
    {
      "type": "Feature",
      "properties": {
        "norad_id": 41790,
        "name": "SCATSAT 1",
        "group": "resource",
        "lat": -81.8436894182926,
        "lon": 139.78182809363454,
        "alt_km": 678.7946576159375,
        "timestamp": "2025-12-21T03:56:50.512015+00:00",
        "meta_object_name": "SCATSAT 1",
        "meta_object_id": "2016-059H",
        "meta_epoch": "2025-12-20T16:59:22.827840",
        "meta_mean_motion": 14.78959944,
        "meta_eccentricity": 0.0056457,
        "meta_inclination": 98.1452,
        "meta_ra_of_asc_node": 51.4773,
        "meta_arg_of_pericenter": 102.8773,
        "meta_mean_anomaly": 257.8753,
        "meta_ephemeris_type": 0,
        "meta_classification_type": "U",
        "meta_norad_cat_id": 41790,
        "meta_element_set_no": 999,
        "meta_rev_at_epoch": 7520,
        "meta_bstar": 0.00013547,
        "meta_mean_motion_dot": 9.7e-06,
        "meta_mean_motion_ddot": 0,
        "tle_line1": "1 41790U 16059H   25354.70790310  .00000970  00000+0  13547-3 0  9996",
        "tle_line2": "2 41790  98.1452  51.4773 0056457 102.8773 257.8753 14.78959944 75205"
      },
      "geometry": {
        "type": "Point",
        "coordinates": [
          139.78182809363454,
          -81.8436894182926
        ]
      }
    },
    {
      "type": "Feature",
      "properties": {
        "norad_id": 41875,
        "name": "GOKTURK 1A",
        "group": "resource",
        "lat": -44.66983493475352,
        "lon": 59.27965262241782,
        "alt_km": 691.6213807909826,
        "timestamp": "2025-12-21T03:56:50.512025+00:00",
        "meta_object_name": "GOKTURK 1A",
        "meta_object_id": "2016-073A",
        "meta_epoch": "2025-12-20T20:21:16.272000",
        "meta_mean_motion": 14.62788128,
        "meta_eccentricity": 0.0001277,
        "meta_inclination": 98.1436,
        "meta_ra_of_asc_node": 247.1052,
        "meta_arg_of_pericenter": 82.8732,
        "meta_mean_anomaly": 277.2615,
        "meta_ephemeris_type": 0,
        "meta_classification_type": "U",
        "meta_norad_cat_id": 41875,
        "meta_element_set_no": 999,
        "meta_rev_at_epoch": 48275,
        "meta_bstar": 7.8814e-05,
        "meta_mean_motion_dot": 3.55e-06,
        "meta_mean_motion_ddot": 0,
        "tle_line1": "1 41875U 16073A   25354.84810500  .00000355  00000+0  78814-4 0  9991",
        "tle_line2": "2 41875  98.1436 247.1052 0001277  82.8732 277.2615 14.62788128482759"
      },
      "geometry": {
        "type": "Point",
        "coordinates": [
          59.27965262241782,
          -44.66983493475352
        ]
      }
    },
    {
      "type": "Feature",
      "properties": {
        "norad_id": 41877,
        "name": "RESOURCESAT-2A",
        "group": "resource",
        "lat": 70.79689745310526,
        "lon": -88.70201438079616,
        "alt_km": 813.3898509317733,
        "timestamp": "2025-12-21T03:56:50.512034+00:00",
        "meta_object_name": "RESOURCESAT-2A",
        "meta_object_id": "2016-074A",
        "meta_epoch": "2025-12-20T20:41:18.415680",
        "meta_mean_motion": 14.216019,
        "meta_eccentricity": 0.0001393,
        "meta_inclination": 98.7753,
        "meta_ra_of_asc_node": 64.6708,
        "meta_arg_of_pericenter": 216.8243,
        "meta_mean_anomaly": 143.2838,
        "meta_ephemeris_type": 0,
        "meta_classification_type": "U",
        "meta_norad_cat_id": 41877,
        "meta_element_set_no": 999,
        "meta_rev_at_epoch": 46896,
        "meta_bstar": -6.3155e-05,
        "meta_mean_motion_dot": -1.83e-06,
        "meta_mean_motion_ddot": 0,
        "tle_line1": "1 41877U 16074A   25354.86201870 -.00000183  00000+0 -63155-4 0  9993",
        "tle_line2": "2 41877  98.7753  64.6708 0001393 216.8243 143.2838 14.21601900468967"
      },
      "geometry": {
        "type": "Point",
        "coordinates": [
          -88.70201438079616,
          70.79689745310526
        ]
      }
    }
  ]
}